NORAD_CAT_ID,OBJECT_NAME,OBJECT_TYPE,EPOCH,MEAN_MOTION,ECCENTRICITY,INCLINATION,RA_OF_ASC_NODE,ARG_OF_PERICENTER,MEAN_ANOMALY,BSTAR,MEAN_MOTION_DOT,MEAN_MOTION_DDOT,TLE_LINE0,TLE_LINE1,TLE_LINE2,SEMIMAJOR_AXIS,PERIOD,APOGEE,PERIGEE,DECAYED
53631.0,STARLINK-4599,PAYLOAD,2022-09-11 22:00:00,15.731987699999998,0.0001109,53.2159,214.7784,89.4588,299.4732,0.00050207,0.00070431,0.0,0 STARLINK-4599,1 53631U 22104AV  22254.91667824  .00070431  00000-0  50207-3 0  9997,2 53631  53.2159 214.7784 0001109  89.4588 299.4732 15.73198770  2355,6727.899,91.533,350.51,349.01800000000014,0.0
53631.0,STARLINK-4599,PAYLOAD,2022-09-12 12:00:00,15.73261332,0.0001100999999999,53.2159,211.8928,79.1167,15.5308,-0.00049264,-0.0006937,0.0,0 STARLINK-4599,1 53631U 22104AV  22255.50001157 -.00069370  00000-0 -49264-3 0  9997,2 53631  53.2159 211.8928 0001101  79.1167  15.5308 15.73261332  2456,6727.72,91.53,350.326,348.845,0.0
53631.0,STARLINK-4599,PAYLOAD,2022-09-12 20:00:01,15.73223342,0.000102,53.216,210.2418,95.2552,88.4263,0.00036345,0.00050747,0.0,0 STARLINK-4599,1 53631U 22104AV  22255.83335648  .00050747  00000-0  36345-3 0  9990,2 53631  53.2160 210.2418 0001020  95.2552  88.4263 15.73223342  2506,6727.829000000002,91.532,350.38,349.00699999999995,0.0
53631.0,STARLINK-4599,PAYLOAD,2022-09-12 22:00:00,15.73266578,9.990000000000004e-05,53.2162,209.83,91.5084,204.3337,-0.0002901999999999,-0.00041263,0.0,0 STARLINK-4599,1 53631U 22104AV  22255.91667824 -.00041263  00000-0 -29020-3 0  9990,2 53631  53.2162 209.8300 0000999  91.5084 204.3337 15.73266578  1301,6727.705,91.529,350.242,348.898,0.0
53631.0,STARLINK-4599,PAYLOAD,2022-09-13 06:00:00,15.73223838,0.00011,53.2158,208.1825,77.8616,306.9768,-0.00048237,-0.00067841,0.0,0 STARLINK-4599,1 53631U 22104AV  22256.25001157 -.00067841  00000-0 -48237-3 0  9990,2 53631  53.2158 208.1825 0001100  77.8616 306.9768 15.73223838  2561,6727.8269999999975,91.532,350.432,348.952,0.0
53631.0,STARLINK-4599,PAYLOAD,2022-09-13 14:00:01,15.73153845,0.0001220999999999,53.2158,206.5314,89.6934,24.0806,0.00011394,0.00015369,0.0,0 STARLINK-4599,1 53631U 22104AV  22256.58334491  .00015369  00000-0  11394-3 0  9996,2 53631  53.2158 206.5314 0001221  89.6934  24.0806 15.73153845  1306,6728.026999999999,91.536,350.713,349.07,0.0
53631.0,STARLINK-4599,PAYLOAD,2022-09-13 20:00:01,15.73184491,0.0001385999999999,53.2161,205.2932,96.0199,354.4062,-0.00021529,-0.00030704,0.0,0 STARLINK-4599,1 53631U 22104AV  22256.83334491 -.00030704  00000-0 -21529-3 0  9997,2 53631  53.2161 205.2932 0001386  96.0199 354.4062 15.73184491  2664,6727.939,91.534,350.737,348.872,0.0
53631.0,STARLINK-4599,PAYLOAD,2022-09-13 22:00:00,15.73191183,0.0001503,53.2158,204.8818,96.527,106.136,-0.00023081,-0.00032875,0.0,0 STARLINK-4599,1 53631U 22104AV  22256.91667824 -.00032875  00000-0 -23081-3 0  9991,2 53631  53.2158 204.8818 0001503  96.5270 106.1360 15.73191183  1303,6727.92,91.534,350.797,348.774,0.0
53631.0,STARLINK-4599,PAYLOAD,2022-09-14 04:00:00,15.73149574,0.0001486999999999,53.2165,203.6467,87.2956,92.0501,0.00048007,0.00067149,0.0,0 STARLINK-4599,1 53631U 22104AV  22257.16667824  .00067149  00000-0  48007-3 0  9994,2 53631  53.2165 203.6467 0001487  87.2956  92.0501 15.73149574  2710,6728.0390000000025,91.536,350.904,348.903,0.0
53631.0,STARLINK-4599,PAYLOAD,2022-09-14 14:00:01,15.73182457,0.00013,53.2158,201.5832,97.1645,283.3114,-9.4365e-06,-1.943e-05,0.0,0 STARLINK-4599,1 53631U 22104AV  22257.58334491 -.00001943  00000-0 -94365-5 0  9993,2 53631  53.2158 201.5832 0001300  97.1645 283.3114 15.73182457  2772,6727.945,91.534,350.685,348.936,0.0
53631.0,STARLINK-4599,PAYLOAD,2022-09-14 22:00:00,15.73218844,0.0001273,53.2155,199.9336,100.0893,9.2788,9.4505e-05,0.00012674,0.0,0 STARLINK-4599,1 53631U 22104AV  22257.91667824  .00012674  00000-0  94505-4 0  9995,2 53631  53.2155 199.9336 0001273 100.0893   9.2788 15.73218844  1306,6727.840999999999,91.532,350.56300000000016,348.85,0.0
53631.0,STARLINK-4599,PAYLOAD,2022-09-15 04:00:00,15.732192800000002,0.0001157,53.2151,198.6981,91.9495,354.1384,-0.00014597,-0.00021071,0.0,0 STARLINK-4599,1 53631U 22104AV  22258.16667824 -.00021071  00000-0 -14597-3 0  9998,2 53631  53.2151 198.6981 0001157  91.9495 354.1384 15.73219280  2873,6727.84,91.532,350.4840000000001,348.927,0.0
53631.0,STARLINK-4599,PAYLOAD,2022-09-15 14:00:01,15.73225348,0.0001197,53.2148,196.6346,102.674,184.6261,-0.00017303,-0.00024858,0.0,0 STARLINK-4599,1 53631U 22104AV  22258.58334491 -.00024858  00000-0 -17303-3 0  9999,2 53631  53.2148 196.6346 0001197 102.6740 184.6261 15.73225348  1308,6727.823,91.532,350.49300000000005,348.8830000000001,0.0
53631.0,STARLINK-4599,PAYLOAD,2022-09-15 22:00:00,15.73232026,0.0001375999999999,53.215,194.9852,104.5169,271.7085,-0.00045655,-0.00064294,0.0,0 STARLINK-4599,1 53631U 22104AV  22258.91667824 -.00064294  00000-0 -45655-3 0  9994,2 53631  53.2150 194.9852 0001376 104.5169 271.7085 15.73232026  1302,6727.804,91.531,350.595,348.74300000000005,0.0
53631.0,STARLINK-4599,PAYLOAD,2022-09-16 00:00:00,15.73211361,0.0001371,53.2149,194.5734,100.9525,27.5156,-0.00028077,-0.00039857,0.0,0 STARLINK-4599,1 53631U 22104AV  22259.00001157 -.00039857  00000-0 -28077-3 0  9992,2 53631  53.2149 194.5734 0001371 100.9525  27.5156 15.73211361  3000,6727.863,91.533,350.65,348.805,0.0
53631.0,STARLINK-4599,PAYLOAD,2022-09-16 14:00:01,15.73174644,0.0001236,53.2151,191.6861,104.7384,89.3315,0.00020013,0.00027528,0.0,0 STARLINK-4599,1 53631U 22104AV  22259.58334491  .00027528  00000-0  20013-3 0  9997,2 53631  53.2151 191.6861 0001236 104.7384  89.3315 15.73174644  1303,6727.967,91.535,350.664,349.001,0.0
53631.0,STARLINK-4599,PAYLOAD,2022-09-16 22:00:00,15.73186,0.0001468,53.2149,190.0369,103.6848,179.2896,-0.00012356,-0.00017914,0.0,0 STARLINK-4599,1 53631U 22104AV  22259.91667824 -.00017914  00000-0 -12356-3 0  9994,2 53631  53.2149 190.0369 0001468 103.6848 179.2896 15.73186000  3142,6727.935,91.534,350.788,348.81199999999984,0.0
53631.0,STARLINK-4599,PAYLOAD,2022-09-17 14:00:01,15.73225159,0.0001356,53.2142,186.7376,109.921,350.8763,3.1238e-06,-1.81e-06,0.0,0 STARLINK-4599,1 53631U 22104AV  22260.58334491 -.00000181  00000-0  31238-5 0  9999,2 53631  53.2142 186.7376 0001356 109.9210 350.8763 15.73225159  3254,6727.823,91.532,350.601,348.776,0.0
53631.0,STARLINK-4599,PAYLOAD,2022-09-17 22:00:00,15.73211144,0.00013,53.2144,185.0884,112.1464,77.6108,0.00022904,0.00031661,0.0,0 STARLINK-4599,1 53631U 22104AV  22260.91667824  .00031661  00000-0  22904-3 0  9999,2 53631  53.2144 185.0884 0001300 112.1464  77.6108 15.73211144  1308,6727.863,91.533,350.603,348.85400000000016,0.0
53631.0,STARLINK-4599,PAYLOAD,2022-09-18 14:00:01,15.73214759,0.0001323,53.2146,181.7887,112.9536,254.7979,0.00044169,0.00061865,0.0,0 STARLINK-4599,1 53631U 22104AV  22261.58335648  .00061865  00000-0  44169-3 0  9995,2 53631  53.2146 181.7887 0001323 112.9536 254.7979 15.73214759  3401,6727.853,91.532,350.608,348.82800000000015,0.0
53631.0,STARLINK-4599,PAYLOAD,2022-09-18 22:00:00,15.73266587,0.0001208,53.2146,180.1398,114.8014,341.8566,-0.00038791,-0.00054861,0.0,0 STARLINK-4599,1 53631U 22104AV  22261.91667824 -.00054861  00000-0 -38791-3 0  9990,2 53631  53.2146 180.1398 0001208 114.8014 341.8566 15.73266587  1308,6727.705,91.529,350.3830000000001,348.7580000000001,0.0
53631.0,STARLINK-4599,PAYLOAD,2022-09-19 06:00:02,15.73206004,0.0001159,53.214,178.4914,102.3846,83.2991,8.6747e-06,5.98e-06,0.0,0 STARLINK-4599,1 53631U 22104AV  22262.25002315  .00000598  00000-0  86747-5 0  9998,2 53631  53.2140 178.4914 0001159 102.3846  83.2991 15.73206004  3518,6727.878000000002,91.533,350.523,348.963,0.0
53631.0,STARLINK-4599,PAYLOAD,2022-09-19 14:00:01,15.73214082,0.0001231999999999,53.2141,176.8399,120.0591,154.4955,-0.0001686999999999,-0.00024242,0.0,0 STARLINK-4599,1 53631U 22104AV  22262.58334491 -.00024242  00000-0 -16870-3 0  9999,2 53631  53.2141 176.8399 0001232 120.0591 154.4955 15.73214082  1305,6727.855,91.532,350.5490000000001,348.891,0.0
53631.0,STARLINK-4599,PAYLOAD,2022-09-19 22:00:00,15.73226162,0.0001159999999999,53.2144,175.1912,120.6359,242.8585,-0.00042268,-0.00059587,0.0,0 STARLINK-4599,1 53631U 22104AV  22262.91667824 -.00059587  00000-0 -42268-3 0  9995,2 53631  53.2144 175.1912 0001160 120.6359 242.8585 15.73226162  1302,6727.821,91.532,350.466,348.905,0.0
53631.0,STARLINK-4599,PAYLOAD,2022-09-20 06:00:00,15.73139276,0.0001094999999999,53.2144,173.5427,110.1994,342.2335,0.00071763,0.00101049,0.0,0 STARLINK-4599,1 53631U 22104AV  22263.25001157  .00101049  00000-0  71763-3 0  9995,2 53631  53.2144 173.5427 0001095 110.1994 342.2335 15.73139276  3670,6728.068,91.537,350.67,349.19699999999995,0.0
53631.0,STARLINK-4599,PAYLOAD,2022-09-20 14:00:01,15.732041399999998,0.0001107999999999,53.2147,171.8913,125.5591,55.7686,-0.00015801,-0.00022739,0.0,0 STARLINK-4599,1 53631U 22104AV  22263.58334491 -.00022739  00000-0 -15801-3 0  9992,2 53631  53.2147 171.8913 0001108 125.5591  55.7686 15.73204140  1308,6727.8830000000025,91.533,350.494,349.00300000000016,0.0
53631.0,STARLINK-4599,PAYLOAD,2022-09-20 22:00:01,15.73190684,0.0001034,53.2148,170.2429,123.0813,147.2344,0.00010723,0.00014449,0.0,0 STARLINK-4599,1 53631U 22104AV  22263.91668981  .00014449  00000-0  10723-3 0  9998,2 53631  53.2148 170.2429 0001034 123.0813 147.2344 15.73190684  1307,6727.922,91.534,350.482,349.091,0.0
53631.0,STARLINK-4599,PAYLOAD,2022-09-21 14:00:01,15.73152616,0.0001207,53.2143,166.9429,128.3425,319.731,0.00071983,0.00101424,0.0,0 STARLINK-4599,1 53631U 22104AV  22264.58334491  .00101424  00000-0  71983-3 0  9993,2 53631  53.2143 166.9429 0001207 128.3425 319.7310 15.73152616  3880,6728.03,91.536,350.707,349.083,0.0
53631.0,STARLINK-4599,PAYLOAD,2022-09-21 22:00:00,15.73241775,0.0001235,53.2147,165.2946,121.9073,55.076,8.4135e-06,5.63e-06,0.0,0 STARLINK-4599,1 53631U 22104AV  22264.91667824  .00000563  00000-0  84135-5 0  9996,2 53631  53.2147 165.2946 0001235 121.9073  55.0760 15.73241775  1308,6727.776,91.531,350.472,348.81,0.0
